[{"OBJECT_NAME":"STARLINK-30702","OBJECT_ID":"2023-148W","EPOCH":"2026-03-09T05:48:17.758944","MEAN_MOTION":15.30191301,"ECCENTRICITY":9.511e-5,"INCLINATION":53.1613,"RA_OF_ASC_NODE":16.2915,"ARG_OF_PERICENTER":79.3427,"MEAN_ANOMALY":280.7681,"EPHEMERIS_TYPE":0,"CLASSIFICATION_TYPE":"U","NORAD_CAT_ID":57955,"ELEMENT_SET_NO":999,"REV_AT_EPOCH":13849,"BSTAR":-1.6505985e-5,"MEAN_MOTION_DOT":-8.48e-6,"MEAN_MOTION_DDOT":0},{"OBJECT_NAME":"OBJECT BC","OBJECT_ID":"2025-313BC","EPOCH":"2026-03-09T04:33:08.504064","MEAN_MOTION":15.29126358,"ECCENTRICITY":0.00084789,"INCLINATION":97.3985,"RA_OF_ASC_NODE":144.811,"ARG_OF_PERICENTER":328.9209,"MEAN_ANOMALY":31.1528,"EPHEMERIS_TYPE":0,"CLASSIFICATION_TYPE":"U","NORAD_CAT_ID":67298,"ELEMENT_SET_NO":999,"REV_AT_EPOCH":789,"BSTAR":0.0026410397,"MEAN_MOTION_DOT":0.00075331,"MEAN_MOTION_DDOT":0}]
